[
    {
        "Altitude(m)": 703239.5303925547,
        "Argument of Periapsis(deg)": 0.0022780242373254137,
        "Eccentricity": 0.0,
        "Inclination(deg)": 45.0,
        "Latitude(deg)": 1.5812873748253515,
        "Longitude(deg)": 66.44309754782519,
        "Mean Anomaly(deg)": 2.3066433294961697,
        "RAAN(deg)": 164.99784961170835,
        "Satellite Name": "Constellation 1 726",
        "Satellite Number": 726,
        "Semi-Major Axis(m)": 7083131.272910544,
        "Time(s)": 38
    },
    {
        "Altitude(m)": 703234.694071994,
        "Argument of Periapsis(deg)": 0.002337972243570819,
        "Eccentricity": 0.0,
        "Inclination(deg)": 45.0,
        "Latitude(deg)": 1.624488623366775,
        "Longitude(deg)": 66.48188219437608,
        "Mean Anomaly(deg)": 2.3673444697460817,
        "RAAN(deg)": 164.99779302254277,
        "Satellite Name": "Constellation 1 726",
        "Satellite Number": 726,
        "Semi-Major Axis(m)": 7083131.272910544,
        "Time(s)": 39
    },
    {
        "Altitude(m)": 703229.8785818121,
        "Argument of Periapsis(deg)": 0.0023979202498162246,
        "Eccentricity": 0.0,
        "Inclination(deg)": 45.0,
        "Latitude(deg)": 1.6676890022753212,
        "Longitude(deg)": 66.52066872593153,
        "Mean Anomaly(deg)": 2.428045609995968,
        "RAAN(deg)": 164.9977364333772,
        "Satellite Name": "Constellation 1 726",
        "Satellite Number": 726,
        "Semi-Major Axis(m)": 7083131.272910544,
        "Time(s)": 40
    },
    {
        "Altitude(m)": 703225.0839248492,
        "Argument of Periapsis(deg)": 0.00245786825606163,
        "Eccentricity": 0.0,
        "Inclination(deg)": 45.0,
        "Latitude(deg)": 1.7108884865366312,
        "Longitude(deg)": 66.55945719088275,
        "Mean Anomaly(deg)": 2.48874675024588,
        "RAAN(deg)": 164.99767984421166,
        "Satellite Name": "Constellation 1 726",
        "Satellite Number": 726,
        "Semi-Major Axis(m)": 7083131.272910544,
        "Time(s)": 41
    },
    {
        "Altitude(m)": 703220.3101038377,
        "Argument of Periapsis(deg)": 0.002517816262307036,
        "Eccentricity": 0.0,
        "Inclination(deg)": 45.0,
        "Latitude(deg)": 1.7540870511325048,
        "Longitude(deg)": 66.59824763762543,
        "Mean Anomaly(deg)": 2.5494478904957414,
        "RAAN(deg)": 164.99762325504608,
        "Satellite Name": "Constellation 1 726",
        "Satellite Number": 726,
        "Semi-Major Axis(m)": 7083131.272910544,
        "Time(s)": 42
    },
    {
        "Altitude(m)": 703215.5571214294,
        "Argument of Periapsis(deg)": 0.0025777642685524413,
        "Eccentricity": 0.0,
        "Inclination(deg)": 45.0,
        "Latitude(deg)": 1.7972846710408799,
        "Longitude(deg)": 66.6370401145601,
        "Mean Anomaly(deg)": 2.610149030745653,
        "RAAN(deg)": 164.99756666588053,
        "Satellite Name": "Constellation 1 726",
        "Satellite Number": 726,
        "Semi-Major Axis(m)": 7083131.272910544,
        "Time(s)": 43
    },
    {
        "Altitude(m)": 703210.8249801722,
        "Argument of Periapsis(deg)": 0.002637712274797847,
        "Eccentricity": 0.0,
        "Inclination(deg)": 45.0,
        "Latitude(deg)": 1.840481321235481,
        "Longitude(deg)": 66.67583450199476,
        "Mean Anomaly(deg)": 2.6708501709955397,
        "RAAN(deg)": 164.99751007671492,
        "Satellite Name": "Constellation 1 726",
        "Satellite Number": 726,
        "Semi-Major Axis(m)": 7083131.272910544,
        "Time(s)": 44
    },
    {
        "Altitude(m)": 703206.1136825297,
        "Argument of Periapsis(deg)": 0.0026976602810432526,
        "Eccentricity": 0.0,
        "Inclination(deg)": 45.0,
        "Latitude(deg)": 1.8836769766864165,
        "Longitude(deg)": 66.71463118453366,
        "Mean Anomaly(deg)": 2.7315513112454513,
        "RAAN(deg)": 164.99745348754936,
        "Satellite Name": "Constellation 1 726",
        "Satellite Number": 726,
        "Semi-Major Axis(m)": 7083131.272910544,
        "Time(s)": 45
    },
    {
        "Altitude(m)": 703201.4232308631,
        "Argument of Periapsis(deg)": 0.0027576082872886585,
        "Eccentricity": 0.0,
        "Inclination(deg)": 45.0,
        "Latitude(deg)": 1.9268716123591474,
        "Longitude(deg)": 66.75343004249477,
        "Mean Anomaly(deg)": 2.7922524514953633,
        "RAAN(deg)": 164.99739689838378,
        "Satellite Name": "Constellation 1 726",
        "Satellite Number": 726,
        "Semi-Major Axis(m)": 7083131.272910544,
        "Time(s)": 46
    },
    {
        "Altitude(m)": 703196.7536274464,
        "Argument of Periapsis(deg)": 0.0028175562935340644,
        "Eccentricity": 0.0,
        "Inclination(deg)": 45.0,
        "Latitude(deg)": 1.9700652032150054,
        "Longitude(deg)": 66.79223112429823,
        "Mean Anomaly(deg)": 2.8529535917452495,
        "RAAN(deg)": 164.99734030921823,
        "Satellite Name": "Constellation 1 726",
        "Satellite Number": 726,
        "Semi-Major Axis(m)": 7083131.272910544,
        "Time(s)": 47
    },
    {
        "Altitude(m)": 703192.1048744583,
        "Argument of Periapsis(deg)": 0.00287750429977947,
        "Eccentricity": 0.0,
        "Inclination(deg)": 45.0,
        "Latitude(deg)": 2.0132577242109537,
        "Longitude(deg)": 66.83103447836936,
        "Mean Anomaly(deg)": 2.913654731995162,
        "RAAN(deg)": 164.99728372005268,
        "Satellite Name": "Constellation 1 726",
        "Satellite Number": 726,
        "Semi-Major Axis(m)": 7083131.272910544,
        "Time(s)": 48
    },
    {
        "Altitude(m)": 703187.4769739783,
        "Argument of Periapsis(deg)": 0.002937452306024875,
        "Eccentricity": 0.0,
        "Inclination(deg)": 45.0,
        "Latitude(deg)": 2.0564491502994944,
        "Longitude(deg)": 66.86984015313891,
        "Mean Anomaly(deg)": 2.9743558722450483,
        "RAAN(deg)": 164.9972271308871,
        "Satellite Name": "Constellation 1 726",
        "Satellite Number": 726,
        "Semi-Major Axis(m)": 7083131.272910544,
        "Time(s)": 49
    },
    {
        "Altitude(m)": 703182.8699280018,
        "Argument of Periapsis(deg)": 0.0029974003122702807,
        "Eccentricity": 0.0,
        "Inclination(deg)": 45.0,
        "Latitude(deg)": 2.0996394564285774,
        "Longitude(deg)": 66.90864819704281,
        "Mean Anomaly(deg)": 3.0350570124949603,
        "RAAN(deg)": 164.99717054172152,
        "Satellite Name": "Constellation 1 726",
        "Satellite Number": 726,
        "Semi-Major Axis(m)": 7083131.272910544,
        "Time(s)": 50
    },
    {
        "Altitude(m)": 703178.2837384209,
        "Argument of Periapsis(deg)": 0.0030573483185156866,
        "Eccentricity": 0.0,
        "Inclination(deg)": 45.0,
        "Latitude(deg)": 2.1428286175415083,
        "Longitude(deg)": 66.9474586585228,
        "Mean Anomaly(deg)": 3.095758152744847,
        "RAAN(deg)": 164.99711395255594,
        "Satellite Name": "Constellation 1 726",
        "Satellite Number": 726,
        "Semi-Major Axis(m)": 7083131.272910544,
        "Time(s)": 51
    },
    {
        "Altitude(m)": 703173.7184070451,
        "Argument of Periapsis(deg)": 0.003117296324761092,
        "Eccentricity": 0.0,
        "Inclination(deg)": 45.0,
        "Latitude(deg)": 2.1860166085767014,
        "Longitude(deg)": 66.98627141792898,
        "Mean Anomaly(deg)": 3.156459292994759,
        "RAAN(deg)": 164.99705736339038,
        "Satellite Name": "Constellation 1 726",
        "Satellite Number": 726,
        "Semi-Major Axis(m)": 7083131.272910544,
        "Time(s)": 52
    },
    {
        "Altitude(m)": 703169.1739355827,
        "Argument of Periapsis(deg)": 0.0031772443310064975,
        "Eccentricity": 0.0,
        "Inclination(deg)": 45.0,
        "Latitude(deg)": 2.2292034044682167,
        "Longitude(deg)": 67.02508685990848,
        "Mean Anomaly(deg)": 3.217160433244645,
        "RAAN(deg)": 164.9970007742248,
        "Satellite Name": "Constellation 1 726",
        "Satellite Number": 726,
        "Semi-Major Axis(m)": 7083131.272910544,
        "Time(s)": 53
    },
    {
        "Altitude(m)": 703164.6503256491,
        "Argument of Periapsis(deg)": 0.0032371923372519038,
        "Eccentricity": 0.0,
        "Inclination(deg)": 45.0,
        "Latitude(deg)": 2.272388980144719,
        "Longitude(deg)": 67.06390486482304,
        "Mean Anomaly(deg)": 3.277861573494557,
        "RAAN(deg)": 164.99694418505925,
        "Satellite Name": "Constellation 1 726",
        "Satellite Number": 726,
        "Semi-Major Axis(m)": 7083131.272910544,
        "Time(s)": 54
    },
    {
        "Altitude(m)": 703160.1475787666,
        "Argument of Periapsis(deg)": 0.0032971403434973088,
        "Eccentricity": 0.0,
        "Inclination(deg)": 45.0,
        "Latitude(deg)": 2.3155733105300293,
        "Longitude(deg)": 67.10272548113744,
        "Mean Anomaly(deg)": 3.338562713744469,
        "RAAN(deg)": 164.99688759589364,
        "Satellite Name": "Constellation 1 726",
        "Satellite Number": 726,
        "Semi-Major Axis(m)": 7083131.272910544,
        "Time(s)": 55
    },
    {
        "Altitude(m)": 703155.6656963639,
        "Argument of Periapsis(deg)": 0.0033570883497427146,
        "Eccentricity": 0.0,
        "Inclination(deg)": 45.0,
        "Latitude(deg)": 2.3587563705428667,
        "Longitude(deg)": 67.14154875732252,
        "Mean Anomaly(deg)": 3.3992638539943556,
        "RAAN(deg)": 164.9968310067281,
        "Satellite Name": "Constellation 1 726",
        "Satellite Number": 726,
        "Semi-Major Axis(m)": 7083131.272910544,
        "Time(s)": 56
    }
]